{
  "type": "FeatureCollection",
  "features": [
    {
      "type": "Feature",
      "properties": {
        "norad_id": 63772,
        "name": "BIOMASS",
        "group": "resource",
        "lat": -49.30152270376463,
        "lon": -20.24238666397599,
        "alt_km": 676.578228127576,
        "timestamp": "2025-12-10T04:57:29.263621+00:00",
        "meta_object_name": "BIOMASS",
        "meta_object_id": "2025-090A",
        "meta_epoch": "2025-12-09T18:05:44.042208",
        "meta_mean_motion": 14.67536805,
        "meta_eccentricity": 0.0001201,
        "meta_inclination": 98.0703,
        "meta_ra_of_asc_node": 168.8071,
        "meta_arg_of_pericenter": 77.0089,
        "meta_mean_anomaly": 283.1249,
        "meta_ephemeris_type": 0,
        "meta_classification_type": "U",
        "meta_norad_cat_id": 63772,
        "meta_element_set_no": 999,
        "meta_rev_at_epoch": 3290,
        "meta_bstar": 0.0004616,
        "meta_mean_motion_dot": 2.57e-05,
        "meta_mean_motion_ddot": 0,
        "tle_line1": "1 63772U 25090A   25343.75398197  .00002570  00000+0  46160-3 0  9990",
        "tle_line2": "2 63772  98.0703 168.8071 0001201  77.0089 283.1249 14.67536805 32908"
      },
      "geometry": {
        "type": "Point",
        "coordinates": [
          -20.24238666397599,
          -49.30152270376463
        ]
      }
    },
    {
      "type": "Feature",
      "properties": {
        "norad_id": 64694,
        "name": "GOSAT-GW (IBUKI GW)",
        "group": "resource",
        "lat": 76.55462071084334,
        "lon": -116.49151170395102,
        "alt_km": 660.5499618788335,
        "timestamp": "2025-12-10T04:57:29.263631+00:00",
        "meta_object_name": "GOSAT-GW (IBUKI GW)",
        "meta_object_id": "2025-141A",
        "meta_epoch": "2025-12-08T18:14:08.043648",
        "meta_mean_motion": 14.67565462,
        "meta_eccentricity": 0.00014946,
        "meta_inclination": 98.0423,
        "meta_ra_of_asc_node": 278.345,
        "meta_arg_of_pericenter": 82.5316,
        "meta_mean_anomaly": 277.6059,
        "meta_ephemeris_type": 0,
        "meta_classification_type": "U",
        "meta_norad_cat_id": 64694,
        "meta_element_set_no": 999,
        "meta_rev_at_epoch": 2391,
        "meta_bstar": 0.00038232231,
        "meta_mean_motion_dot": 2.122e-05,
        "meta_mean_motion_ddot": 0,
        "tle_line1": "1 64694U 25141A   25342.75981532  .00002122  00000+0  38232-3 0  9995",
        "tle_line2": "2 64694  98.0423 278.3450 0001494  82.5316 277.6059 14.67565462 23916"
      },
      "geometry": {
        "type": "Point",
        "coordinates": [
          -116.49151170395102,
          76.55462071084334
        ]
      }
    },
    {
      "type": "Feature",
      "properties": {
        "norad_id": 64876,
        "name": "IONOSFERA-M 3",
        "group": "resource",
        "lat": 37.81592788882557,
        "lon": 132.87177177809497,
        "alt_km": 817.329204284375,
        "timestamp": "2025-12-10T04:57:29.263641+00:00",
        "meta_object_name": "IONOSFERA-M 3",
        "meta_object_id": "2025-155A",
        "meta_epoch": "2025-12-09T21:32:12.901920",
        "meta_mean_motion": 14.2144,
        "meta_eccentricity": 0.0002293,
        "meta_inclination": 98.5778,
        "meta_ra_of_asc_node": 305.844,
        "meta_arg_of_pericenter": 64.4717,
        "meta_mean_anomaly": 295.6698,
        "meta_ephemeris_type": 0,
        "meta_classification_type": "U",
        "meta_norad_cat_id": 64876,
        "meta_element_set_no": 999,
        "meta_rev_at_epoch": 1951,
        "meta_bstar": 9.6782e-05,
        "meta_mean_motion_dot": 1.69e-06,
        "meta_mean_motion_ddot": 0,
        "tle_line1": "1 64876U 25155A   25343.89737155  .00000169  00000+0  96782-4 0  9992",
        "tle_line2": "2 64876  98.5778 305.8440 0002293  64.4717 295.6698 14.21440000 19513"
      },
      "geometry": {
        "type": "Point",
        "coordinates": [
          132.87177177809497,
          37.81592788882557
        ]
      }
    },
    {
      "type": "Feature",
      "properties": {
        "norad_id": 64877,
        "name": "IONOSFERA-M 4",
        "group": "resource",
        "lat": -37.407039374552014,
        "lon": -47.30781342762189,
        "alt_km": 827.0930989890539,
        "timestamp": "2025-12-10T04:57:29.263652+00:00",
        "meta_object_name": "IONOSFERA-M 4",
        "meta_object_id": "2025-155B",
        "meta_epoch": "2025-12-09T20:41:21.012864",
        "meta_mean_motion": 14.21441093,
        "meta_eccentricity": 0.0001662,
        "meta_inclination": 98.5777,
        "meta_ra_of_asc_node": 305.7292,
        "meta_arg_of_pericenter": 66.2764,
        "meta_mean_anomaly": 293.8588,
        "meta_ephemeris_type": 0,
        "meta_classification_type": "U",
        "meta_norad_cat_id": 64877,
        "meta_element_set_no": 999,
        "meta_rev_at_epoch": 1950,
        "meta_bstar": 0.00010415,
        "meta_mean_motion_dot": 1.85e-06,
        "meta_mean_motion_ddot": 0,
        "tle_line1": "1 64877U 25155B   25343.86204876  .00000185  00000+0  10415-3 0  9995",
        "tle_line2": "2 64877  98.5777 305.7292 0001662  66.2764 293.8588 14.21441093 19508"
      },
      "geometry": {
        "type": "Point",
        "coordinates": [
          -47.30781342762189,
          -37.407039374552014
        ]
      }
    },
    {
      "type": "Feature",
      "properties": {
        "norad_id": 64899,
        "name": "MICROCARB",
        "group": "resource",
        "lat": 15.576384705501553,
        "lon": 57.34503683632596,
        "alt_km": 663.9399833319467,
        "timestamp": "2025-12-10T04:57:29.263662+00:00",
        "meta_object_name": "MICROCARB",
        "meta_object_id": "2025-156A",
        "meta_epoch": "2025-12-09T10:56:29.938848",
        "meta_mean_motion": 14.72049485,
        "meta_eccentricity": 0.00169337,
        "meta_inclination": 98.0028,
        "meta_ra_of_asc_node": 58.854,
        "meta_arg_of_pericenter": 154.8146,
        "meta_mean_anomaly": 205.389,
        "meta_ephemeris_type": 0,
        "meta_classification_type": "U",
        "meta_norad_cat_id": 64899,
        "meta_element_set_no": 999,
        "meta_rev_at_epoch": 2005,
        "meta_bstar": 0.00022635085,
        "meta_mean_motion_dot": 1.375e-05,
        "meta_mean_motion_ddot": 0,
        "tle_line1": "1 64899U 25156A   25343.45590207  .00001375  00000+0  22635-3 0  9990",
        "tle_line2": "2 64899  98.0028  58.8540 0016933 154.8146 205.3890 14.72049485 20054"
      },
      "geometry": {
        "type": "Point",
        "coordinates": [
          57.34503683632596,
          15.576384705501553
        ]
      }
    },
    {
      "type": "Feature",
      "properties": {
        "norad_id": 64900,
        "name": "CO3D 3",
        "group": "resource",
        "lat": -20.777232144674915,
        "lon": 63.44930885016388,
        "alt_km": 511.0198471979611,
        "timestamp": "2025-12-10T04:57:29.263672+00:00",
        "meta_object_name": "CO3D 3",
        "meta_object_id": "2025-156B",
        "meta_epoch": "2025-12-09T19:34:17.738112",
        "meta_mean_motion": 15.2018766,
        "meta_eccentricity": 0.0001293,
        "meta_inclination": 97.4343,
        "meta_ra_of_asc_node": 60.2241,
        "meta_arg_of_pericenter": 99.1307,
        "meta_mean_anomaly": 261.0074,
        "meta_ephemeris_type": 0,
        "meta_classification_type": "U",
        "meta_norad_cat_id": 64900,
        "meta_element_set_no": 999,
        "meta_rev_at_epoch": 2076,
        "meta_bstar": 0.0004532,
        "meta_mean_motion_dot": 9.752e-05,
        "meta_mean_motion_ddot": 0,
        "tle_line1": "1 64900U 25156B   25343.81548308  .00009752  00000+0  45320-3 0  9991",
        "tle_line2": "2 64900  97.4343  60.2241 0001293  99.1307 261.0074 15.20187660 20761"
      },
      "geometry": {
        "type": "Point",
        "coordinates": [
          63.44930885016388,
          -20.777232144674915
        ]
      }
    },
    {
      "type": "Feature",
      "properties": {
        "norad_id": 64901,
        "name": "CO3D 4",
        "group": "resource",
        "lat": -21.56439070518523,
        "lon": 63.56799952866445,
        "alt_km": 511.08022606243776,
        "timestamp": "2025-12-10T04:57:29.263682+00:00",
        "meta_object_name": "CO3D 4",
        "meta_object_id": "2025-156C",
        "meta_epoch": "2025-12-09T19:34:30.686880",
        "meta_mean_motion": 15.20206414,
        "meta_eccentricity": 0.0001132,
        "meta_inclination": 97.4338,
        "meta_ra_of_asc_node": 60.2248,
        "meta_arg_of_pericenter": 213.4588,
        "meta_mean_anomaly": 146.6576,
        "meta_ephemeris_type": 0,
        "meta_classification_type": "U",
        "meta_norad_cat_id": 64901,
        "meta_element_set_no": 999,
        "meta_rev_at_epoch": 2076,
        "meta_bstar": 0.00013578,
        "meta_mean_motion_dot": 2.873e-05,
        "meta_mean_motion_ddot": 0,
        "tle_line1": "1 64901U 25156C   25343.81563295  .00002873  00000+0  13578-3 0  9991",
        "tle_line2": "2 64901  97.4338  60.2248 0001132 213.4588 146.6576 15.20206414 20761"
      },
      "geometry": {
        "type": "Point",
        "coordinates": [
          63.56799952866445,
          -21.56439070518523
        ]
      }
    }
  ]
}